STARLINK-2238
1 48584U 21041AH  26090.83335647  .01157282  00000+0  14706-1 0  9997
2 48584  53.0549  37.2132 0001134  99.7938 314.4587 15.56426231  5720
